FENGYUN 1C DEB          
1 32441U 99025DBD 17343.56480162  .00000637  00000-0  34618-3 0  9990
2 32441  97.7940 104.0064 0297376  21.3837 339.9455 13.94779588536985
